STARLINK-31424          
1 59247U 24049S   26068.28066430  .00001284  00000+0  56209-4 0  9997
2 59247  43.0004 142.3688 0001602 293.1719  66.8964 15.27569142112378
2025-155V               
1 64895U 25155V   26068.85787115  .00013705  00000+0  51002-3 0  9990
2 64895  97.4485  37.2490 0008035 152.8264 207.3397 15.27583301 65579
